{
  "version": 0.6,
  "generator": "Overpass API 0.7.62.8 e802775f",
  "osm3s": {
    "timestamp_osm_base": "2025-08-26T02:41:43Z",
    "timestamp_areas_base": "2025-08-25T22:14:45Z",
    "copyright": "The data included in this document is from www.openstreetmap.org. The data is made available under ODbL."
  },
  "elements": [

{
  "type": "relation",
  "id": 1844412,
  "center": {
    "lat": 22.7378590,
    "lon": 106.0521797
  },
  "tags": {
    "ISO3166-2": "VN-04",
    "admin_level": "4",
    "boundary": "administrative",
    "is_in:country_code": "VN",
    "name": "Tỉnh Cao Bằng",
    "name:ar": "محافظة كاو بانغ",
    "name:bg": "Као Банг",
    "name:de": "Cao Bằng",
    "name:en": "Cao Bằng Province",
    "name:fa": "استان کائو بانگ",
    "name:fi": "Cao Bằng",
    "name:fr": "Province de Cao Bằng",
    "name:id": "Provinsi Cao Bằng",
    "name:it": "Provincia di Cao Bang",
    "name:ja": "カオバン",
    "name:ko": "까오방성",
    "name:mn": "Гау Бан",
    "name:nl": "Cao Bằng",
    "name:pl": "Prowincja Cao Bằng",
    "name:pt": "Cao Bang",
    "name:ru": "Каобанг",
    "name:sr": "Као Банг",
    "name:sv": "Cao Bang",
    "name:sw": "Mkoa wa Cao Bằng",
    "name:tg": "Вилояти Кау Банг",
    "name:th": "จังหวัดกาวบั่ง",
    "name:tr": "Cao Bằng ili",
    "name:uk": "Каобанг",
    "name:ur": "کاؤ بانگ صوبہ",
    "name:zh": "高平省",
    "type": "boundary",
    "wikidata": "Q36865",
    "wikipedia": "en:Cao Bằng Province"
  }
},
{
  "type": "relation",
  "id": 1873490,
  "center": {
    "lat": 8.9083082,
    "lon": 104.7687092
  },
  "tags": {
    "ISO3166-2": "VN-59",
    "admin_level": "4",
    "boundary": "administrative",
    "is_in:country_code": "VN",
    "name": "Tỉnh Cà Mau",
    "name:ar": "محافظة كا ماو",
    "name:bg": "Ка Мау",
    "name:de": "Cà Mau",
    "name:en": "Cà Mau Province",
    "name:es": "Cà Mau",
    "name:fa": "استان کاماو",
    "name:fi": "Cà Mau",
    "name:fr": "Province de Cà Mau",
    "name:id": "Provinsi Ca Mau",
    "name:it": "Provincia di Cà Mau",
    "name:ja": "カマウ",
    "name:km": "ខេត្តទឹកខ្មៅ",
    "name:ko": "까마우성",
    "name:ms": "Wilayah Ca Mau",
    "name:nl": "Cà Mau",
    "name:no": "Ca Mau",
    "name:pl": "Prowincja Cà Mau",
    "name:ru": "Камау",
    "name:sr": "Ка Мау",
    "name:sv": "Ca Mau",
    "name:sw": "Mkoa wa Cà Mau",
    "name:tg": "Вилояти Ка Мау",
    "name:th": "จังหวัดก่าเมา",
    "name:uk": "Камау",
    "name:ur": "کآ ماو صوبہ",
    "name:vi": "Tỉnh Cà Mau",
    "name:vi-Hani": "省哥毛",
    "name:zh": "金甌省",
    "name:zh-Hans": "金瓯省",
    "name:zh-Hant": "金甌省",
    "old_name": "Tỉnh An Xuyên",
    "population": "1214900",
    "type": "boundary",
    "wikidata": "Q33354",
    "wikipedia": "vi:Cà Mau"
  }
},
{
  "type": "relation",
  "id": 1874283,
  "center": {
    "lat": 9.5138569,
    "lon": 105.8397614
  },
  "tags": {
    "ISO3166-2": "VN-CT",
    "admin_level": "4",
    "alt_name": "Cần Thơ",
    "alt_name:en": "Cantho",
    "boundary": "administrative",
    "capital": "4",
    "is_in:country_code": "VN",
    "name": "Thành phố Cần Thơ",
    "name:af": "Can Tho",
    "name:ar": "كن تاه",
    "name:bg": "Кан Тхо",
    "name:ce": "Кантхо",
    "name:cs": "Can Tho",
    "name:da": "Can Tho",
    "name:de": "Can Tho",
    "name:en": "Cần Thơ",
    "name:eo": "Can Tho",
    "name:fa": "شهر کان‌تو",
    "name:gl": "Can Tho",
    "name:ja": "カントー",
    "name:kl": "Can Tho",
    "name:km": "ទីក្រុងព្រែកឫស្សី",
    "name:ko": "껀터",
    "name:ky": "Кантхо",
    "name:lt": "Kantas",
    "name:mi": "Can Tho",
    "name:mn": "Кантхо",
    "name:ms": "Can Tho",
    "name:nl": "Cần Thơ",
    "name:no": "Can Tho",
    "name:pt": "Can Tho",
    "name:ru": "Кантхо",
    "name:sr": "Кантхо",
    "name:sv": "Can Tho",
    "name:sw": "Can Tho",
    "name:th": "เกิ่นเทอ",
    "name:tl": "Can Tho",
    "name:vi": "Thành phố Cần Thơ",
    "name:zh": "芹苴市",
    "name:zh-Hans": "芹苴市",
    "name:zh-Hant": "芹苴市",
    "official_name": "Thành phố Cần Thơ",
    "official_name:en": "Can Tho City",
    "official_name:ko": "껀터시",
    "old_name": "Tỉnh Phong Dinh",
    "place": "municipality",
    "population": "1258900",
    "type": "boundary",
    "wikidata": "Q216075",
    "wikipedia": "vi:Cần Thơ",
    "wikivoyage": "en:Can Tho"
  }
},
{
  "type": "relation",
  "id": 1875748,
  "center": {
    "lat": 9.9784233,
    "lon": 104.3139293
  },
  "tags": {
    "ISO3166-2": "VN-44",
    "admin_level": "4",
    "boundary": "administrative",
    "is_in:country_code": "VN",
    "name": "Tỉnh An Giang",
    "name:en": "An Giang Province",
    "name:fa": "استان آن‌جانگ",
    "name:fr": "Province de An Giang",
    "name:ja": "アンザン",
    "name:ko": "안장성",
    "name:zh": "安江省",
    "name:zh-Hans": "安江省",
    "name:zh-Hant": "安江省",
    "population": "2151000",
    "type": "boundary",
    "wikidata": "Q36592",
    "wikipedia": "vi:An Giang"
  }
},
{
  "type": "relation",
  "id": 1875866,
  "center": {
    "lat": 10.5541179,
    "lon": 106.0894737
  },
  "tags": {
    "ISO3166-2": "VN-45",
    "admin_level": "4",
    "boundary": "administrative",
    "is_in:country_code": "VN",
    "name": "Tỉnh Đồng Tháp",
    "name:ar": "محافظة دون تاب",
    "name:bg": "Донг Тхап",
    "name:de": "Đồng Tháp",
    "name:en": "Đồng Tháp Province",
    "name:es": "Đồng Tháp",
    "name:fa": "استان دونگ‌تاپ",
    "name:fi": "Đồng Tháp",
    "name:fr": "Province de Đồng Tháp",
    "name:id": "Provinsi Dong Thap",
    "name:it": "Provincia di Dong Thap",
    "name:ja": "ドンタップ",
    "name:km": "ខេត្តផ្សារដែក",
    "name:ko": "동탑성",
    "name:nl": "Đồng Tháp",
    "name:pl": "Prowincja Đồng Tháp",
    "name:pt": "Dong Thap",
    "name:ru": "Донгтхап",
    "name:sr": "Донг Тап",
    "name:sv": "Dong Thap",
    "name:sw": "Mkoa wa Đồng Tháp",
    "name:th": "จังหวัดด่งท้าป",
    "name:uk": "Донгтхап",
    "name:ur": "دونگ تھاپ صوبہ",
    "name:vi-Hani": "省垌塔",
    "name:zh": "同塔省",
    "population": "1673200",
    "type": "boundary",
    "wikidata": "Q36676",
    "wikipedia": "vi:Đồng Tháp"
  }
},
{
  "type": "relation",
  "id": 1875887,
  "center": {
    "lat": 9.7101955,
    "lon": 106.3376216
  },
  "tags": {
    "ISO3166-2": "VN-49",
    "admin_level": "4",
    "boundary": "administrative",
    "is_in:country_code": "VN",
    "name": "Tỉnh Vĩnh Long",
    "name:ar": "محافظة فين لونغ",
    "name:bg": "Вин Лонг",
    "name:de": "Vĩnh Long",
    "name:en": "Vĩnh Long Province",
    "name:es": "Vĩnh Long",
    "name:fa": "استان وین‌لونگ",
    "name:fi": "Vĩnh Long",
    "name:fr": "Province de Vĩnh Long",
    "name:id": "Provinsi Vinh Long",
    "name:it": "Provincia di Vinh Long",
    "name:ja": "ヴィンロン",
    "name:km": "ខេត្តលង់ហោរ",
    "name:ko": "빈롱성",
    "name:nl": "Vĩnh Long",
    "name:pl": "Prowincja Vĩnh Long",
    "name:pt": "Vinh Long",
    "name:ro": "Vĩnh Long",
    "name:ru": "Виньлонг",
    "name:sr": "Вињ Лонг",
    "name:sv": "Vinh Long",
    "name:sw": "Mkoa wa Vĩnh Long",
    "name:tg": "Вилояти Вин Лонг",
    "name:uk": "Віньлонг",
    "name:ur": "وینہ لونگ صوبہ",
    "name:vi": "Tỉnh Vĩnh Long",
    "name:vi-Hani": "省永隆",
    "name:zh": "永隆省",
    "name:zh-Hant": "永隆省",
    "population": "1028600",
    "type": "boundary",
    "wikidata": "Q7333405",
    "wikipedia": "vi:Vĩnh Long"
  }
},
{
  "type": "relation",
  "id": 1884018,
  "center": {
    "lat": 13.8496844,
    "lon": 108.5178715
  },
  "tags": {
    "ISO3166-2": "VN-30",
    "admin_level": "4",
    "boundary": "administrative",
    "is_in:country_code": "VN",
    "name": "Tỉnh Gia Lai",
    "name:ar": "محافظة زا لاي",
    "name:bg": "Жиа Лай",
    "name:de": "Gia Lai",
    "name:en": "Gia Lai Province",
    "name:es": "Gia Lai",
    "name:fa": "استان گیا لای",
    "name:fi": "Gia Lai",
    "name:fr": "Province de Gia Lai",
    "name:id": "Provinsi Gia Lai",
    "name:it": "Provincia di Gia Lai",
    "name:ja": "ザライ",
    "name:ko": "잘라이성",
    "name:ml": "ഗിയ ലായ് പ്രൊവിൻസ്",
    "name:nl": "Gia Lai",
    "name:pl": "Prowincja Gia Lai",
    "name:pt": "Gia Lai",
    "name:ru": "Зялай",
    "name:sr": "Жја Лај",
    "name:sv": "Gia Lai",
    "name:sw": "Mkoa wa Gia Lai",
    "name:tg": "Вилояти Гиа Лай",
    "name:uk": "Зялай",
    "name:ur": "گیا لائی صوبہ",
    "name:vi-Hani": "省嘉萊",
    "name:zh": "嘉萊省",
    "name:zh-Hans": "嘉莱省",
    "name:zh-Hant": "嘉萊省",
    "population": "1322000",
    "type": "boundary",
    "wikidata": "Q36662",
    "wikipedia": "vi:Gia Lai"
  }
},
{
  "type": "relation",
  "id": 1884034,
  "center": {
    "lat": 12.9279311,
    "lon": 108.5753838
  },
  "tags": {
    "ISO3166-2": "VN-33",
    "admin_level": "4",
    "alt_name": "Darlac;Daklak",
    "boundary": "administrative",
    "is_in:country_code": "VN",
    "name": "Tỉnh Đắk Lắk",
    "name:ar": "محافظة داك لاك",
    "name:bg": "Дак Лак",
    "name:en": "Đắk Lắk Province",
    "name:fa": "استان داک لاک",
    "name:fr": "Province de Đắk Lắk",
    "name:id": "Provinsi Đắk Lắk",
    "name:it": "Provincia di Đắk Lắk",
    "name:ja": "ダクラク",
    "name:ko": "닥락성",
    "name:pl": "Prowincja Đắk Lắk",
    "name:pt": "Província de Đắk Lắk",
    "name:ru": "провинция Даклак",
    "name:sr": "Дак Лак",
    "name:sw": "Mkoa wa Đắk Lắk",
    "name:tg": "Вилояти Дак Лак",
    "name:th": "จังหวัดดั๊กลัก",
    "name:uk": "Даклак",
    "name:ur": "داک لاک صوبہ",
    "name:vi-Hani": "省得勒",
    "name:zh": "多樂省",
    "name:zh-Hans": "多乐省",
    "name:zh-Hant": "多樂省",
    "population": "1771800",
    "type": "boundary",
    "wikidata": "Q36690",
    "wikipedia": "vi:Đắk Lắk"
  }
},
{
  "type": "relation",
  "id": 1885367,
  "center": {
    "lat": 11.0952706,
    "lon": 108.3040271
  },
  "tags": {
    "ISO3166-2": "VN-35",
    "admin_level": "4",
    "boundary": "administrative",
    "is_in:country_code": "VN",
    "name": "Tỉnh Lâm Đồng",
    "name:ar": "محافظة لام دونغ",
    "name:bg": "Лам Донг",
    "name:en": "Lâm Đồng Province",
    "name:fa": "استان لام دونگ",
    "name:fr": "Province de Lâm Đồng",
    "name:id": "Provinsi Lam Dong",
    "name:it": "Provincia di Lam Dong",
    "name:ja": "ラムドン",
    "name:ko": "럼동성",
    "name:pl": "Prowincja Lâm Đồng",
    "name:pt": "Lam Dong",
    "name:ro": "Lâm Đồng",
    "name:ru": "Ламдонг",
    "name:sr": "Лам Донг",
    "name:sw": "Mkoa wa Lâm Đồng",
    "name:tg": "Вилояти Лам Донг",
    "name:th": "จังหวัดเลิมด่ง",
    "name:uk": "Ламдонг",
    "name:ur": "لام دونگ صوبہ",
    "name:vi-Hani": "省林同",
    "name:zh": "林同省",
    "name:zh-Hant": "林同省",
    "official_name": "Tỉnh Lâm Đồng",
    "type": "boundary",
    "wikidata": "Q36721",
    "wikipedia": "vi:Lâm Đồng"
  }
},
{
  "type": "relation",
  "id": 1887959,
  "center": {
    "lat": 10.2803044,
    "lon": 111.7043661
  },
  "tags": {
    "ISO3166-2": "VN-34",
    "admin_level": "4",
    "boundary": "administrative",
    "is_in:country_code": "VN",
    "name": "Tỉnh Khánh Hòa",
    "name:ar": "محافظة كان هوا",
    "name:bg": "Кхан Хоа",
    "name:en": "Khánh Hòa Province",
    "name:es": "Khánh Hòa",
    "name:fa": "استان خان هوا",
    "name:fi": "Khánh Hòa",
    "name:fr": "Province de Khánh Hòa",
    "name:id": "Provinsi Khanh Hoa",
    "name:it": "Provincia di Khanh Hoa",
    "name:ja": "カインホア",
    "name:ko": "카인호아성",
    "name:nl": "Khánh Hòa",
    "name:pl": "Prowincja Khánh Hòa",
    "name:pt": "Khanh Hoa",
    "name:ru": "провинция Кханьхоа",
    "name:sr": "Хањ Хоа",
    "name:sv": "Khanh Hoa",
    "name:sw": "Mkoa wa Khánh Hòa",
    "name:tg": "Вилояти Кан Хоа",
    "name:th": "จังหวัดคั้ญฮหว่า",
    "name:uk": "Кханьхоа",
    "name:ur": "خانھ ہوا صوبہ",
    "name:vi": "Khánh Hòa",
    "name:vi-Hani": "省慶和",
    "name:zh": "慶和省",
    "name:zh-Hans": "庆和省",
    "name:zh-Hant": "慶和省",
    "population": "1174100",
    "type": "boundary",
    "wikidata": "Q33369",
    "wikipedia": "de:Khánh Hòa"
  }
},
{
  "type": "relation",
  "id": 1890793,
  "center": {
    "lat": 14.8594835,
    "lon": 108.3993081
  },
  "tags": {
    "ISO3166-2": "VN-29",
    "admin_level": "4",
    "alt_name": "Quảng Ngãi",
    "boundary": "administrative",
    "is_in:country_code": "VN",
    "name": "Tỉnh Quảng Ngãi",
    "name:en": "Quảng Ngãi Province",
    "name:ko": "꽝응아이",
    "name:uk": "Куанґнґай",
    "name:vi-Hani": "省廣義",
    "name:zh": "广义省",
    "name:zh-Hans": "广义省",
    "name:zh-Hant": "廣義省",
    "population": "1221600",
    "type": "boundary",
    "wikidata": "Q33304",
    "wikipedia": "vi:Quảng Ngãi"
  }
},
{
  "type": "relation",
  "id": 1891418,
  "center": {
    "lat": 15.6426813,
    "lon": 108.1172366
  },
  "tags": {
    "ISO3166-2": "VN-DN",
    "admin_level": "4",
    "boundary": "administrative",
    "is_in:country_code": "VN",
    "name": "Thành phố Đà Nẵng",
    "name:en": "Đà Nẵng",
    "name:km": "ដាណាំង",
    "name:ko": "다낭",
    "name:th": "ดานัง",
    "name:vi": "Thành phố Đà Nẵng",
    "name:vi-Hani": "城庯沱㶞",
    "name:zh": "岘港市",
    "name:zh-Hans": "岘港市",
    "name:zh-Hant": "峴港市",
    "note": "Hoàng Sa (Paracel Islands) is also listed as district but under PRC administration (disputed!)",
    "official_name": "Thành phố Đà Nẵng",
    "official_name:en": "Da Nang City",
    "official_name:ko": "다낭시",
    "official_name:vi": "Thành phố Đà Nẵng",
    "official_name:zh": "岘港市",
    "official_name:zh-Hans": "岘港市",
    "official_name:zh-Hant": "峴港市",
    "old_name": "Tourane",
    "population": "3065628",
    "type": "boundary",
    "wikidata": "Q25282",
    "wikipedia": "vi:Đà Nẵng",
    "wikivoyage": "en:Da Nang"
  }
},
{
  "type": "relation",
  "id": 1891483,
  "center": {
    "lat": 16.5529226,
    "lon": 107.7574633
  },
  "tags": {
    "ISO3166-2": "VN-26",
    "admin_level": "4",
    "boundary": "administrative",
    "is_in:country_code": "VN",
    "name": "Thành phố Huế",
    "name:ar": "هوي",
    "name:bg": "Хюе",
    "name:cs": "Hue",
    "name:da": "Hué",
    "name:de": "Hue",
    "name:el": "Χουέ",
    "name:en": "Huế",
    "name:eo": "Hue",
    "name:es": "Hué",
    "name:eu": "Hue",
    "name:fa": "هوئه",
    "name:fi": "Huế",
    "name:fr": "Hué",
    "name:ga": "Hué",
    "name:he": "הואה",
    "name:id": "Hue",
    "name:it": "Hue",
    "name:ja": "フエ",
    "name:ka": "ჰუე",
    "name:kl": "Hue",
    "name:ko": "후에",
    "name:lt": "Hujė",
    "name:mk": "Хуе",
    "name:mn": "Хюэ",
    "name:nl": "Huế",
    "name:no": "Hue",
    "name:pl": "Huế",
    "name:pt": "Hue",
    "name:ro": "Huế",
    "name:ru": "Хюэ",
    "name:sr": "Хуе",
    "name:sv": "Hué",
    "name:sw": "Huế",
    "name:tg": "Ху",
    "name:th": "เว้",
    "name:uk": "Хюе",
    "name:ur": "ہوائے",
    "name:uz": "Xyue",
    "name:vi": "Thành phố Huế",
    "name:vi-Hani": "化",
    "name:zh": "顺化市",
    "name:zh-Hans": "顺化市",
    "name:zh-Hant": "順化市",
    "old_name": "Thừa Thiên;Thừa Thiên Huế",
    "population": "1166500",
    "timezone": "Asia/Ho_Chi_Minh",
    "type": "boundary",
    "wikidata": "Q36399"
  }
},
{
  "type": "relation",
  "id": 1895630,
  "center": {
    "lat": 17.2168886,
    "lon": 106.6498212
  },
  "tags": {
    "ISO3166-2": "VN-25",
    "admin_level": "4",
    "boundary": "administrative",
    "is_in:country_code": "VN",
    "name": "Tỉnh Quảng Trị",
    "name:af": "Quang Tri",
    "name:an": "Quảng Trị",
    "name:ar": "محافظة كوانغ تشي",
    "name:bg": "Куанг Чи",
    "name:br": "Proviñs Quang Tri",
    "name:ca": "Província de Quảng Trị",
    "name:ch": "Probensia Quang Tri",
    "name:co": "Pruvincia di Quang Tri",
    "name:cs": "Quang Tri",
    "name:da": "Quang Tri",
    "name:de": "Quảng Trị",
    "name:en": "Quảng Trị Province",
    "name:eo": "Provinco Quang Tri",
    "name:es": "Quảng Trị",
    "name:et": "Quảng Trị provints",
    "name:eu": "Quang Tri probintzia",
    "name:fa": "استان کوانگ تری",
    "name:fi": "Quảng Trị",
    "name:fr": "Province de Quảng Trị",
    "name:fy": "Kuang Tri",
    "name:ga": "Quang Tri",
    "name:gl": "Provincia de Quảng Trị",
    "name:hr": "Quảng Trị",
    "name:ht": "Quang Tri",
    "name:hu": "Quảng Trị",
    "name:ia": "Provincia Quang Tri",
    "name:id": "Provinsi Quang Tri",
    "name:ie": "Quang Tri",
    "name:ik": "Quang Tri",
    "name:it": "Provincia di Quang Tri",
    "name:ja": "クアンチ",
    "name:jv": "Provinsi Quang Tri",
    "name:ko": "꽝찌성",
    "name:la": "Quảng Trị",
    "name:lb": "Provënz Quang Tri",
    "name:ms": "Quang Tri",
    "name:mt": "Provinċja ta' Quảng Trị",
    "name:nl": "Quảng Trị",
    "name:nn": "Quang Tri",
    "name:no": "Quang Tri",
    "name:oc": "Província de Quang Tri",
    "name:pl": "Prowincja Quảng Trị",
    "name:pt": "Quang Tri",
    "name:ro": "Quảng Trị",
    "name:ru": "Куангчи",
    "name:sc": "Provìntzia de Quảng Trị",
    "name:sk": "Quảng Trị",
    "name:sl": "Quảng Trị",
    "name:so": "Quang Tri",
    "name:sq": "Provinca Quang Tri",
    "name:sr": "Кванг Чи",
    "name:su": "Quang Tri",
    "name:sv": "Quang Tri",
    "name:sw": "Mkoa wa Quảng Trị",
    "name:tg": "Вилояти Куанг Трий",
    "name:th": "จังหวัดกว๋างจิ",
    "name:tl": "Quang Tri",
    "name:tr": "Quang Tri",
    "name:uk": "Куанґчі",
    "name:ur": "قوانگ تری صوبہ",
    "name:ve": "Quang Tri",
    "name:vi": "Tỉnh Quảng Trị",
    "name:vi-Hani": "省廣治",
    "name:vo": "Quang Tri",
    "name:wa": "Quảng Trị",
    "name:zh": "广治省",
    "name:zh-Hans": "广治省",
    "name:zh-Hant": "廣治省",
    "population": "1870845",
    "ref": "QT",
    "timezone": "Asia/Bangkok",
    "type": "boundary",
    "wikidata": "Q36579",
    "wikipedia": "vi:Quảng Trị"
  }
},
{
  "type": "relation",
  "id": 1898458,
  "center": {
    "lat": 18.3383008,
    "lon": 105.9285843
  },
  "tags": {
    "ISO3166-2": "VN-23",
    "admin_level": "4",
    "alt_name": "Hà Tĩnh",
    "boundary": "administrative",
    "is_in:country_code": "VN",
    "name": "Tỉnh Hà Tĩnh",
    "name:ar": "محافظة ها تنه",
    "name:bg": "Ха Тин",
    "name:cv": "Хатинь провинцийĕ",
    "name:de": "Hà Tĩnh",
    "name:en": "Hà Tĩnh Province",
    "name:es": "Hà Tĩnh",
    "name:fa": "استان ها تین",
    "name:fi": "Hà Tĩnh",
    "name:fr": "Province de Hà Tĩnh",
    "name:id": "Provinsi Hà Tĩnh",
    "name:it": "Provincia di Hà Tĩnh",
    "name:ja": "ハティン",
    "name:ko": "하띤성",
    "name:nl": "Hà Tĩnh",
    "name:pl": "Prowincja Hà Tĩnh",
    "name:pt": "Hà Tĩnh",
    "name:ru": "Хатинь",
    "name:sr": "Ха Тињ",
    "name:sv": "Hà Tĩnh",
    "name:sw": "Mkoa wa Hà Tĩnh",
    "name:tg": "Вилояти Ха Тин",
    "name:uk": "Хатінь",
    "name:ur": "ہا تنہ صوبہ",
    "name:vi": "Hà Tĩnh",
    "name:vi-Hani": "省河靜",
    "name:zh": "河静省",
    "name:zh-Hans": "河静省",
    "name:zh-Hant": "河靜省",
    "population": "1229300",
    "timezone": "Asia/Bangkok",
    "type": "boundary",
    "wikidata": "Q33351",
    "wikipedia": "vi:Hà Tĩnh"
  }
},
{
  "type": "relation",
  "id": 1898509,
  "center": {
    "lat": 19.2772339,
    "lon": 105.0695310
  },
  "tags": {
    "ISO3166-2": "VN-22",
    "admin_level": "4",
    "boundary": "administrative",
    "is_in:country_code": "VN",
    "name": "Tỉnh Nghệ An",
    "name:ar": "محافظة ني أن",
    "name:bg": "Нге Ан",
    "name:en": "Nghệ An Province",
    "name:fa": "استان نه آن",
    "name:fr": "Province de Nghệ An",
    "name:id": "Provinsi Nghệ An",
    "name:it": "Provincia di Nghệ An",
    "name:ja": "ゲアン",
    "name:ko": "응에안성",
    "name:mk": "Нге Ан",
    "name:pl": "Prowincja Nghệ An",
    "name:pt": "Nghệ An",
    "name:ro": "Nghệ An",
    "name:ru": "Нге Ан",
    "name:sr": "Нге Ан",
    "name:sw": "Mkoa wa Nghệ An",
    "name:tg": "Вилояти Нге Ан",
    "name:th": "จังหวัดเหงะอาน",
    "name:uk": "Нге Ан",
    "name:ur": "نگہ آن صوبہ",
    "name:vi": "Tỉnh Nghệ An",
    "name:zh": "乂安省",
    "population": "2942900",
    "timezone": "Asia/Bangkok",
    "type": "boundary",
    "wikidata": "Q36587",
    "wikipedia": "vi:Nghệ An"
  }
},
{
  "type": "relation",
  "id": 1898590,
  "center": {
    "lat": 19.9287275,
    "lon": 105.3225150
  },
  "tags": {
    "ISO3166-2": "VN-21",
    "admin_level": "4",
    "alt_name": "Thanh Hóa",
    "boundary": "administrative",
    "is_in:country_code": "VN",
    "name": "Tỉnh Thanh Hóa",
    "name:bg": "Провинция Тан Хоа",
    "name:en": "Thanh Hóa Province",
    "name:ja": "タインホア",
    "name:ko": "타인호아성",
    "name:ru": "Тханьхоа",
    "name:vi": "Tỉnh Thanh Hóa",
    "name:zh": "清化省",
    "population": "3412600",
    "timezone": "Asia/Bangkok",
    "type": "boundary",
    "wikidata": "Q36512",
    "wikipedia": "vi:Thanh Hóa"
  }
},
{
  "type": "relation",
  "id": 1898961,
  "center": {
    "lat": 11.0888429,
    "lon": 106.1238044
  },
  "tags": {
    "ISO3166-2": "VN-37",
    "admin_level": "4",
    "boundary": "administrative",
    "is_in:country_code": "VN",
    "name": "Tỉnh Tây Ninh",
    "name:ar": "محافظة تاي ننه",
    "name:bg": "Тай Нин",
    "name:de": "Tây Ninh",
    "name:en": "Tây Ninh Province",
    "name:es": "Tay Ninh",
    "name:fa": "استان تای نین",
    "name:fi": "Tây Ninh",
    "name:fr": "Province de Tây Ninh",
    "name:id": "Provinsi Tay Ninh",
    "name:it": "Provincia di Tay Ninh",
    "name:ja": "タイニン",
    "name:km": "ខេត្តរោងដំរី",
    "name:ko": "떠이닌성",
    "name:nl": "Tây Ninh",
    "name:no": "Tay Ninh",
    "name:pl": "Prowincja Tây Ninh",
    "name:pt": "Tay Ninh",
    "name:ro": "Tây Ninh",
    "name:ru": "Тэйнинь",
    "name:sr": "Тај Нињ",
    "name:sv": "Tay Ninh",
    "name:sw": "Mkoa wa Tây Ninh",
    "name:th": "จังหวัดเต็ยนิญ",
    "name:uk": "Тейнінь",
    "name:ur": "تاے ننہ صوبہ",
    "name:vi-Hani": "省西寧",
    "name:zh": "西寧省",
    "name:zh-Hans": "西宁省",
    "name:zh-Hant": "西寧省",
    "population": "1080700",
    "type": "boundary",
    "wikidata": "Q36608",
    "wikipedia": "vi:Tây Ninh"
  }
},
{
  "type": "relation",
  "id": 1900963,
  "center": {
    "lat": 20.0577285,
    "lon": 106.2470369
  },
  "tags": {
    "ISO3166-2": "VN-18",
    "admin_level": "4",
    "boundary": "administrative",
    "is_in:country_code": "VN",
    "name": "Tỉnh Ninh Bình",
    "name:bg": "Провинция Нин Бин",
    "name:en": "Ninh Bình Province",
    "name:ja": "ニンビン",
    "name:ko": "닌빈성",
    "name:ru": "Ниньбинь",
    "name:vi-Hani": "省寧平",
    "name:zh": "宁平省",
    "name:zh-Hans": "宁平省",
    "name:zh-Hant": "寧平省",
    "population": "906900",
    "type": "boundary",
    "wikidata": "Q36900",
    "wikipedia": "vi:Ninh Bình"
  }
},
{
  "type": "relation",
  "id": 1901032,
  "center": {
    "lat": 20.5420727,
    "lon": 106.5073047
  },
  "tags": {
    "ISO3166-2": "VN-66",
    "admin_level": "4",
    "boundary": "administrative",
    "is_in:country_code": "VN",
    "name": "Tỉnh Hưng Yên",
    "name:ar": "محافظة هونغ اين",
    "name:bg": "Хунг Йен",
    "name:de": "Hưng Yên",
    "name:en": "Hưng Yên Province",
    "name:es": "Hưng Yên",
    "name:fa": "استان هونگ ین",
    "name:fi": "Hưng Yên",
    "name:fr": "Province de Hưng Yên",
    "name:id": "Provinsi Hung Yen",
    "name:it": "Provincia di Hung Yen",
    "name:ja": "フンイエン",
    "name:ko": "흥옌성",
    "name:mn": "Хыниэнь",
    "name:nl": "Hưng Yên",
    "name:pl": "Prowincja Hưng Yên",
    "name:pt": "Hung Yen",
    "name:ru": "Хынгйен",
    "name:sr": "Хинг Јен",
    "name:sv": "Hung Yen",
    "name:sw": "Mkoa wa Hưng Yên",
    "name:th": "จังหวัดฮึงเอียน",
    "name:uk": "Хинґ'єн",
    "name:ur": "ہونگ ین صوبہ",
    "name:vi-Hani": "省興安",
    "name:zh": "兴安省",
    "name:zh-Hans": "兴安省",
    "name:zh-Hant": "興安省",
    "population": "1150400",
    "type": "boundary",
    "wikidata": "Q36235",
    "wikipedia": "vi:Hưng Yên"
  }
},
{
  "type": "relation",
  "id": 1902682,
  "center": {
    "lat": 20.5773749,
    "lon": 107.0380421
  },
  "tags": {
    "ISO3166-2": "VN-HP",
    "UArea": "3194.72",
    "admin_level": "4",
    "alt_name:en": "Hai Phong",
    "alt_name:vi": "Đất Cảng",
    "boundary": "administrative",
    "is_in:country_code": "VN",
    "name": "Thành phố Hải Phòng",
    "name:af": "Hai Phong",
    "name:ar": "ها فونغ",
    "name:be": "Горад Хайфон",
    "name:bg": "Хайфонг",
    "name:bn": "হাইফোং",
    "name:ce": "Хайфон",
    "name:cs": "Haiphong",
    "name:cv": "Хайфон",
    "name:da": "Hai Phong",
    "name:el": "Χάι Φονγκ",
    "name:en": "Hải Phòng",
    "name:eo": "Hai Phong",
    "name:eu": "Hai Phong",
    "name:fa": "هایفونگ",
    "name:hy": "Հայֆոն",
    "name:it": "Haiphong",
    "name:ja": "ハイフォン",
    "name:kl": "Hai Phong",
    "name:ko": "하이퐁",
    "name:lt": "Haifongas",
    "name:ml": "ഹൈ ഫോങ്",
    "name:mr": "हाइ फाँग",
    "name:no": "Haiphong",
    "name:pl": "Hajfong",
    "name:pt": "Haiphong",
    "name:ru": "Хайфон",
    "name:sr": "Хајфонг",
    "name:sv": "Hai Phong",
    "name:sw": "Hai Phong",
    "name:th": "ไฮฟอง",
    "name:tr": "Hải Phòng",
    "name:uk": "Хайфонг",
    "name:ur": "ہائیفونگ",
    "name:vi": "Thành phố Hải Phòng",
    "name:vi-Hani": "海防",
    "name:zh": "海防市",
    "name:zh-Hans": "海防市",
    "name:zh-Hant": "海防市",
    "official_name": "Thành phố Hải Phòng",
    "official_name:en": "Hai Phong City",
    "official_name:ko": "하이퐁시",
    "official_name:vi": "Thành phố Hải Phòng",
    "population": "4664124",
    "type": "boundary",
    "wikidata": "Q72818",
    "wikipedia": "vi:Hải Phòng"
  }
},
{
  "type": "relation",
  "id": 1902690,
  "center": {
    "lat": 21.2978023,
    "lon": 106.4570760
  },
  "tags": {
    "ISO3166-2": "VN-56",
    "UArea": "4718.60",
    "admin_level": "4",
    "boundary": "administrative",
    "is_in:country_code": "VN",
    "name": "Tỉnh Bắc Ninh",
    "name:ar": "محافظة باك ننه",
    "name:bg": "Бак Нин",
    "name:ca": "Bac Ninh",
    "name:de": "Provinz Bắc Ninh",
    "name:en": "Bắc Ninh Province",
    "name:es": "Bắc Ninh",
    "name:fa": "استان باک نین",
    "name:fi": "Bắc Ninh",
    "name:fr": "Province de Bắc Ninh",
    "name:id": "Provinsi Bac Ninh",
    "name:it": "Provincia di Bac Ninh",
    "name:ja": "バクニン",
    "name:ko": "박닌성",
    "name:mn": "Бак Нэн",
    "name:ms": "Wilayah Bac Ninh",
    "name:nl": "Bắc Ninh",
    "name:pl": "Prowincja Bắc Ninh",
    "name:pt": "Bac Ninh",
    "name:ru": "Бакнинь",
    "name:sr": "Бак Нињ",
    "name:sv": "Bắc Ninh",
    "name:sw": "Mkoa wa Bắc Ninh",
    "name:th": "จังหวัดบั๊กนิญ",
    "name:uk": "Бакнінь",
    "name:ur": "باک ننہ صوبہ",
    "name:vi-Hani": "省北寧",
    "name:zh": "北宁省",
    "name:zh-Hans": "北宁省",
    "name:zh-Hant": "北寧省",
    "population": "3619433",
    "type": "boundary",
    "wikidata": "Q33408",
    "wikipedia": "vi:Bắc Ninh"
  }
},
{
  "type": "relation",
  "id": 1902930,
  "center": {
    "lat": 21.0125021,
    "lon": 105.3357186
  },
  "tags": {
    "ISO3166-2": "VN-68",
    "admin_level": "4",
    "boundary": "administrative",
    "is_in:country_code": "VN",
    "name": "Tỉnh Phú Thọ",
    "name:en": "Phú Thọ Province",
    "name:ja": "フート",
    "name:ko": "푸토성",
    "name:vi-Hani": "省富壽",
    "name:zh": "富寿省",
    "name:zh-Hans": "富寿省",
    "name:zh-Hant": "富壽省",
    "population": "1326000",
    "type": "boundary",
    "wikidata": "Q36610",
    "wikipedia": "vi:Phú Thọ"
  }
},
{
  "type": "relation",
  "id": 1902947,
  "center": {
    "lat": 21.0640481,
    "lon": 107.3238826
  },
  "tags": {
    "ISO3166-2": "VN-13",
    "UArea": "6207.90",
    "admin_level": "4",
    "alt_name": "Quảng Ninh",
    "boundary": "administrative",
    "is_in:country_code": "VN",
    "name": "Tỉnh Quảng Ninh",
    "name:de": "Provinz Quảng Ninh",
    "name:en": "Quảng Ninh Province",
    "name:ja": "クアンニン",
    "name:ko": "꽝닌성",
    "name:ru": "провинция Куангнинь",
    "name:tr": "Quảng Ninh Ili",
    "name:zh": "广宁省",
    "name:zh-Hans": "广宁省",
    "name:zh-Hant": "廣寧省",
    "population": "1429841",
    "type": "boundary",
    "wikidata": "Q33396",
    "wikipedia": "vi:Quảng Ninh"
  }
},
{
  "type": "relation",
  "id": 1902967,
  "center": {
    "lat": 22.0339294,
    "lon": 105.8390584
  },
  "tags": {
    "ISO3166-2": "VN-69",
    "admin_level": "4",
    "boundary": "administrative",
    "is_in:country_code": "VN",
    "name": "Tỉnh Thái Nguyên",
    "name:ar": "محافظة تهاي غوين",
    "name:bg": "Тай Нгуен",
    "name:de": "Thái Nguyên",
    "name:en": "Thái Nguyên Province",
    "name:es": "Thái Nguyên Province",
    "name:fa": "استان تای گوین",
    "name:fi": "Thái Nguyên",
    "name:fr": "Province de Thái Nguyên",
    "name:id": "Provinsi Thái Nguyên",
    "name:it": "Provincia di Thai Nguyen",
    "name:ja": "タイグエン",
    "name:ko": "타이응우옌성",
    "name:mn": "Тайнюэнь",
    "name:nl": "Thái Nguyên",
    "name:pl": "Prowincja Thái Nguyên",
    "name:pt": "Thái Nguyên",
    "name:ro": "Thái Nguyên",
    "name:ru": "Тхайнгуен",
    "name:sr": "Тај Нгујен",
    "name:sv": "Thai Nguyen",
    "name:sw": "Mkoa wa Thái Nguyên",
    "name:tg": "Вилояти Тай Нгуен",
    "name:th": "จังหวัดท้ายเงวียน",
    "name:uk": "Тхайнгуєн",
    "name:ur": "تھائی نگوین صوبہ",
    "name:vi-Hani": "省太原",
    "name:zh": "太原省",
    "name:zh-Hant": "太原省",
    "population": "1139400",
    "type": "boundary",
    "wikidata": "Q26575",
    "wikipedia": "vi:Thái Nguyên"
  }
},
{
  "type": "relation",
  "id": 1903291,
  "center": {
    "lat": 21.3018542,
    "lon": 104.1187815
  },
  "tags": {
    "ISO3166-2": "VN-05",
    "admin_level": "4",
    "alt_name": "Sơn La",
    "boundary": "administrative",
    "is_in:country_code": "VN",
    "name": "Tỉnh Sơn La",
    "name:en": "Sơn La Province",
    "name:ja": "ソンラ",
    "name:ko": "선라성",
    "name:vi": "Tỉnh Sơn La",
    "name:vi-Hani": "省山羅",
    "name:zh": "山罗省",
    "name:zh-Hans": "山罗省",
    "name:zh-Hant": "山羅省",
    "population": "1119400",
    "type": "boundary",
    "wikidata": "Q33379",
    "wikipedia": "vi:Sơn La"
  }
},
{
  "type": "relation",
  "id": 1903322,
  "center": {
    "lat": 22.2500039,
    "lon": 103.1531825
  },
  "tags": {
    "ISO3166-2": "VN-01",
    "admin_level": "4",
    "boundary": "administrative",
    "is_in:country_code": "VN",
    "name": "Tỉnh Lai Châu",
    "name:ar": "محافظة لا تشاو",
    "name:bg": "Лай Тяу",
    "name:de": "Lai Châu",
    "name:en": "Lai Châu Province",
    "name:es": "Lai Châu",
    "name:fa": "استان لای چو",
    "name:fi": "Lai Châu",
    "name:fr": "Province de Lai Châu",
    "name:id": "Provinsi Lai Chau",
    "name:it": "Provincia di Lai Chau",
    "name:ja": "ライチャウ",
    "name:ko": "라이쩌우성",
    "name:nl": "Lai Châu",
    "name:pl": "Prowincja Lai Châu",
    "name:pt": "Lai Chau",
    "name:ro": "Lai Châu",
    "name:ru": "провинция Лайтяу",
    "name:sr": "Лај Ћау",
    "name:sv": "Lai Chau",
    "name:sw": "Mkoa wa Lai Châu",
    "name:tg": "Вилояти Лай Чау",
    "name:th": "จังหวัดลายเจิว",
    "name:uk": "Лайтяу",
    "name:ur": "لائی چاو صوبہ",
    "name:zh": "莱州省",
    "name:zh-Hans": "莱州省",
    "name:zh-Hant": "萊州省",
    "population": "391200",
    "type": "boundary",
    "wikidata": "Q36409",
    "wikipedia": "vi:Lai Châu"
  }
},
{
  "type": "relation",
  "id": 1903340,
  "center": {
    "lat": 21.7203080,
    "lon": 102.8713295
  },
  "tags": {
    "ISO3166-2": "VN-71",
    "admin_level": "4",
    "boundary": "administrative",
    "is_in:country_code": "VN",
    "name": "Tỉnh Điện Biên",
    "name:ar": "محافظة دين بين",
    "name:bg": "Диен Биен",
    "name:de": "Điện Biên",
    "name:en": "Điện Biên Province",
    "name:es": "Điện Biên",
    "name:fa": "استان دین بین",
    "name:fi": "Điện Biên",
    "name:fr": "Province de Điện Biên",
    "name:id": "Provinsi Dien Bien",
    "name:it": "Provincia di Dien Bien",
    "name:ja": "ディエンビエン",
    "name:ko": "디엔비엔성",
    "name:nl": "Điện Biên",
    "name:pl": "Prowincja Điện Biên",
    "name:pt": "Dien Bien",
    "name:ru": "провинция Дьенбьен",
    "name:sr": "Дијен Бијен",
    "name:sv": "Dien Bien",
    "name:sw": "Mkoa wa Điện Biên",
    "name:tg": "Вилояти Диен Биен",
    "name:th": "จังหวัดเดี่ยนเบียน",
    "name:uk": "Дьєнб'єн",
    "name:ur": "دیئن بیئن صوبہ",
    "name:zh": "奠边省",
    "name:zh-Hans": "奠边省",
    "name:zh-Hant": "奠邊省",
    "population": "512300",
    "type": "boundary",
    "wikidata": "Q36955",
    "wikipedia": "vi:Điện Biên"
  }
},
{
  "type": "relation",
  "id": 1903400,
  "center": {
    "lat": 22.0854175,
    "lon": 104.3149075
  },
  "tags": {
    "ISO3166-2": "VN-02",
    "admin_level": "4",
    "boundary": "administrative",
    "is_in:country_code": "VN",
    "name": "Tỉnh Lào Cai",
    "name:ar": "محافظة لاو كاي",
    "name:bg": "Лао Кай",
    "name:de": "Provinz Lào Cai",
    "name:en": "Lào Cai Province",
    "name:es": "Provincia de Lào Cai",
    "name:fa": "استان لائو کای",
    "name:fi": "Lào Cai",
    "name:fr": "Province de Lào Cai",
    "name:id": "Provinsi Lào Cai",
    "name:it": "Provincia di Lao Cai",
    "name:ja": "ラオカイ",
    "name:ko": "라오까이성",
    "name:mn": "Лау Гаая",
    "name:nl": "Lào Cai",
    "name:pl": "Prowincja Lào Cai",
    "name:pt": "Lao Cai",
    "name:ro": "Lào Cai",
    "name:ru": "провинция Лаокай",
    "name:sr": "Лао Кај",
    "name:sv": "Lao Cai",
    "name:sw": "Mkoa wa Lào Cai",
    "name:th": "จังหวัดหล่าวกาย",
    "name:uk": "Лаокай",
    "name:ur": "لاو کائی صوبہ",
    "name:zh": "老街省",
    "population": "637500",
    "type": "boundary",
    "wikidata": "Q36446",
    "wikipedia": "vi:Lào Cai"
  }
},
{
  "type": "relation",
  "id": 1903418,
  "center": {
    "lat": 22.4451405,
    "lon": 104.9663250
  },
  "tags": {
    "ISO3166-2": "VN-07",
    "admin_level": "4",
    "boundary": "administrative",
    "is_in:country_code": "VN",
    "name": "Tỉnh Tuyên Quang",
    "name:en": "Tuyên Quang Province",
    "name:fr": "Province de Tuyên Quang",
    "name:ja": "トゥエンクアン",
    "name:ko": "뚜옌꽝성",
    "name:zh": "宣光省",
    "name:zh-Hans": "宣光省",
    "name:zh-Hant": "宣光省",
    "population": "730800",
    "type": "boundary",
    "wikidata": "Q2332060",
    "wikipedia": "vi:Tuyên Quang"
  }
},
{
  "type": "relation",
  "id": 1903516,
  "center": {
    "lat": 20.9749665,
    "lon": 105.6545170
  },
  "tags": {
    "ISO3166-2": "VN-HN",
    "UArea": "3359.80",
    "admin_level": "4",
    "boundary": "administrative",
    "contact:website": "http://www.hanoi.gov.vn/",
    "is_in:country": "Vietnam",
    "is_in:country_code": "VN",
    "name": "Thành phố Hà Nội",
    "name:am": "ሀኖይ",
    "name:ar": "هانوي",
    "name:arz": "هانوى",
    "name:ast": "Ḥanói",
    "name:az": "Hanoy",
    "name:be": "Ханой",
    "name:be-tarask": "Ханой",
    "name:bg": "Ханой",
    "name:bn": "হ্যানয়",
    "name:bo": "ཧེ་ནོ།",
    "name:br": "Ha Noi",
    "name:ca": "Hanoi",
    "name:ckb": "ھانۆی",
    "name:cs": "Hanoj",
    "name:cv": "Ханой",
    "name:da": "Hanoi",
    "name:de": "Hanoi",
    "name:el": "Ανόι",
    "name:en": "Hà Nội",
    "name:eo": "Hanojo",
    "name:es": "Hanói",
    "name:et": "Hanoi",
    "name:eu": "Hanoi",
    "name:fa": "هانوی",
    "name:fi": "Hanoi",
    "name:fr": "Hanoï",
    "name:ga": "Ha Noi",
    "name:gl": "Hanoi",
    "name:he": "האנוי",
    "name:hi": "हनोई",
    "name:hr": "Hanoi",
    "name:ht": "Anòy",
    "name:hu": "Hanoi",
    "name:hy": "Հանոյ",
    "name:is": "Hanoí",
    "name:it": "Hanoi",
    "name:ja": "ハノイ",
    "name:ka": "ჰანოი",
    "name:kk": "Ханой",
    "name:km": "ទីក្រុងហានូយ",
    "name:kn": "ಹಾನೊಯ್",
    "name:ko": "하노이",
    "name:ku": "Hanoi",
    "name:lt": "Hanojus",
    "name:lv": "Hanoja",
    "name:mhr": "Ханой",
    "name:mk": "Ханој",
    "name:mn": "Ханой",
    "name:mr": "हनोई",
    "name:my": "ဟနွိုင်းမြို့",
    "name:mzn": "هانوی",
    "name:nan": "Hà Nội",
    "name:nds": "Hà Nội",
    "name:nl": "Hanoi",
    "name:oc": "Hanòi",
    "name:os": "Ханой",
    "name:pcd": "Hanoï",
    "name:pl": "Hanoi",
    "name:pnb": "ہنوئی",
    "name:pt": "Hanói",
    "name:qu": "Ha Nui",
    "name:ru": "Ханой",
    "name:sah": "Ханой",
    "name:si": "හැනෝයි",
    "name:sk": "Hanoj",
    "name:sl": "Hanoj",
    "name:sr": "Ханој",
    "name:sv": "Hanoi",
    "name:ta": "ஹனோய்",
    "name:tg": "Ханой",
    "name:th": "ฮานอย",
    "name:ug": "خانوي",
    "name:uk": "Ханой",
    "name:ur": "ہنوئی",
    "name:vi": "Hà Nội",
    "name:vi-Hani": "河內",
    "name:wuu": "河內市",
    "name:yue": "河內市",
    "name:zh": "河内市",
    "name:zh-Hans": "河内市",
    "name:zh-Hant": "河內市",
    "official_name": "Thành phố Hà Nội",
    "old_name": "Thăng Long",
    "population": "8718000",
    "type": "boundary",
    "website": "https://hanoi.gov.vn",
    "wikidata": "Q1858",
    "wikipedia": "vi:Hà Nội",
    "wikivoyage": "en:Hanoi"
  }
},
{
  "type": "relation",
  "id": 1904421,
  "center": {
    "lat": 11.4388314,
    "lon": 106.9947303
  },
  "tags": {
    "ISO3166-2": "VN-39",
    "admin_level": "4",
    "boundary": "administrative",
    "is_in:country_code": "VN",
    "name": "Tỉnh Đồng Nai",
    "name:en": "Đồng Nai Province",
    "name:id": "Provinsi Đồng Nai",
    "name:ja": "ドンナイ",
    "name:ko": "동나이성",
    "name:vi": "Tỉnh Đồng Nai",
    "name:vi-Hani": "省垌狔",
    "name:zh": "同奈省",
    "type": "boundary",
    "wikidata": "Q33271",
    "wikipedia": "vi:Đồng Nai"
  }
},
{
  "type": "relation",
  "id": 1973756,
  "center": {
    "lat": 9.9236382,
    "lon": 107.2040297
  },
  "tags": {
    "ISO3166-2": "VN-SG",
    "admin_level": "4",
    "alt_name": "Sài Gòn",
    "alt_name:cs": "Saigon",
    "alt_name:de": "Saigon",
    "alt_name:en": "Saigon",
    "alt_name:fr": "Saigon",
    "alt_name:hr": "Saigon",
    "alt_name:ja": "サイゴン",
    "alt_name:ko": "사이공",
    "alt_name:la": "Saigonia",
    "alt_name:ru": "Сайгон",
    "alt_name:th": "ไซ่ง่อน",
    "alt_name:vi": "Sài Gòn",
    "alt_name:vi-Hani": "柴棍",
    "alt_name:zh": "西贡",
    "alt_name:zh-Hans": "西贡",
    "alt_name:zh-Hant": "西貢",
    "boundary": "administrative",
    "is_in:country_code": "VN",
    "name": "Thành phố Hồ Chí Minh",
    "name:cs": "Ho Či Minovo Město",
    "name:en": "Ho Chi Minh City",
    "name:eo": "Ho-Chi-Minh-urbo",
    "name:fr": "Hô Chi Minh-Ville",
    "name:hr": "Grad Ho Chi Minh",
    "name:ja": "ホーチミン市",
    "name:ko": "호치민시",
    "name:ms": "Kota Ho Chi Minh",
    "name:nl": "Ho Chi Minhstad",
    "name:ru": "Хошимин",
    "name:sk": "Hočiminovo Mesto",
    "name:sr": "Хо Ши Мин",
    "name:th": "นครโฮจิมินห์",
    "name:vi": "Thành phố Hồ Chí Minh",
    "name:vi-Hani": "庯胡志明",
    "name:zh": "胡志明市",
    "name:zh-Hans": "胡志明市",
    "name:zh-Hant": "胡志明市",
    "old_name": "Gia Định;Sài Gòn – Gia Định",
    "population": "9456700",
    "ref": "TPHCM",
    "short_name": "Tp. HCM",
    "short_name:en": "HCMC",
    "short_name:vi": "Tp. HCM",
    "type": "boundary",
    "wikidata": "Q1854",
    "wikipedia": "vi:Thành phố Hồ Chí Minh",
    "wikivoyage": "en:Ho Chi Minh City"
  }
},
{
  "type": "relation",
  "id": 5522596,
  "center": {
    "lat": 21.8933038,
    "lon": 106.7297375
  },
  "tags": {
    "ISO3166-2": "VN-09",
    "UArea": "8310.20",
    "admin_level": "4",
    "alt_name": "Lạng Sơn",
    "boundary": "administrative",
    "is_in:country_code": "VN",
    "name": "Tỉnh Lạng Sơn",
    "name:ar": "محافظة لانغ سون",
    "name:bg": "Ланг Сон",
    "name:br": "Proviñs Lang Son",
    "name:de": "Lạng Sơn",
    "name:en": "Lạng Sơn Province",
    "name:es": "Lạng Sơn",
    "name:fa": "استان لانگ سون",
    "name:fi": "Lạng Sơn",
    "name:fr": "Province de Lạng Sơn",
    "name:id": "Provinsi Lạng Sơn",
    "name:it": "Provincia di Lang Son",
    "name:ja": "ランソン省",
    "name:ko": "랑선성",
    "name:mn": "Ланшонь",
    "name:nl": "Lạng Sơn",
    "name:pl": "Prowincja Lạng Sơn",
    "name:pt": "Lang Son",
    "name:ro": "Lạng Sơn",
    "name:ru": "Лангшон",
    "name:sr": "Ланг Шон",
    "name:sv": "Lang Son",
    "name:sw": "Mkoa wa Lạng Sơn",
    "name:uk": "Ланґшон",
    "name:ur": "لانگ سون صوبہ",
    "name:vi-Hani": "省諒山",
    "name:zh": "谅山省",
    "name:zh-Hans": "谅山省",
    "name:zh-Hant": "諒山省",
    "population": "813978",
    "type": "boundary",
    "wikidata": "Q33403",
    "wikipedia": "vi:Lạng Sơn"
  }
}

  ]
}
